{"type": "FeatureCollection", "features": [ {"type": "Feature", "properties": {"norad_id": 66830, "name": "STARLINK-35881", "group": "last-30-days", "lat": 35.02354458769912, "lon": 172.23492264095282, "alt_km": 406.97188763002214, "timestamp": "2025-12-27T16:33:28.973271+00:00", "meta": {"OBJECT_NAME": "STARLINK-35881", "OBJECT_ID": "2025-280K", "EPOCH": "2025-12-27T04:01:35.480064", "MEAN_MOTION": 15.52548077, "ECCENTRICITY": 0.00031547, "INCLINATION": 70.0006, "RA_OF_ASC_NODE": 158.8761, "ARG_OF_PERICENTER": 283.0642, "MEAN_ANOMALY": 77.0192, "EPHEMERIS_TYPE": 0, "CLASSIFICATION_TYPE": "U", "NORAD_CAT_ID": 66830, "ELEMENT_SET_NO": 999, "REV_AT_EPOCH": 517, "BSTAR": 0.0019915234, "MEAN_MOTION_DOT": 0.00124416, "MEAN_MOTION_DDOT": 0}, "tle": {"line1": "1 66830U 25280K   25361.16777176  .00124416  00000+0  19915-2 0  9993", "line2": "2 66830  70.0006 158.8761 0003154 283.0642  77.0192 15.52548077  5175"}}, "geometry": {"type": "Point", "coordinates": [172.23492264095282, 35.02354458769912]}}, {"type": "Feature", "properties": {"norad_id": 66831, "name": "STARLINK-35788", "group": "last-30-days", "lat": 36.82793408602122, "lon": 173.27315729025992, "alt_km": 407.0268923129752, "timestamp": "2025-12-27T16:33:28.973283+00:00", "meta": {"OBJECT_NAME": "STARLINK-35788", "OBJECT_ID": "2025-280L", "EPOCH": "2025-12-27T04:01:05.450880", "MEAN_MOTION": 15.52566092, "ECCENTRICITY": 0.00035133, "INCLINATION": 70.0002, "RA_OF_ASC_NODE": 158.8757, "ARG_OF_PERICENTER": 275.5341, "MEAN_ANOMALY": 84.5445, "EPHEMERIS_TYPE": 0, "CLASSIFICATION_TYPE": "U", "NORAD_CAT_ID": 66831, "ELEMENT_SET_NO": 999, "REV_AT_EPOCH": 517, "BSTAR": 0.0022665873, "MEAN_MOTION_DOT": 0.00142037, "MEAN_MOTION_DDOT": 0}, "tle": {"line1": "1 66831U 25280L   25361.16742420  .00142037  00000+0  22666-2 0  9994", "line2": "2 66831  70.0002 158.8757 0003513 275.5341  84.5445 15.52566092  5179"}}, "geometry": {"type": "Point", "coordinates": [173.27315729025992, 36.82793408602122]}}, {"type": "Feature", "properties": {"norad_id": 66832, "name": "STARLINK-35768", "group": "last-30-days", "lat": 38.541771379664105, "lon": 174.30839952928315, "alt_km": 406.65235779188697, "timestamp": "2025-12-27T16:33:28.973295+00:00", "meta": {"OBJECT_NAME": "STARLINK-35768", "OBJECT_ID": "2025-280M", "EPOCH": "2025-12-27T04:00:35.956512", "MEAN_MOTION": 15.52564307, "ECCENTRICITY": 0.00031357, "INCLINATION": 70.0005, "RA_OF_ASC_NODE": 158.8732, "ARG_OF_PERICENTER": 276.8618, "MEAN_ANOMALY": 83.2212, "EPHEMERIS_TYPE": 0, "CLASSIFICATION_TYPE": "U", "NORAD_CAT_ID": 66832, "ELEMENT_SET_NO": 999, "REV_AT_EPOCH": 517, "BSTAR": 0.0021558069, "MEAN_MOTION_DOT": 0.00134951, "MEAN_MOTION_DDOT": 0}, "tle": {"line1": "1 66832U 25280M   25361.16708283  .00134951  00000+0  21558-2 0  9999", "line2": "2 66832  70.0005 158.8732 0003135 276.8618  83.2212 15.52564307  5172"}}, "geometry": {"type": "Point", "coordinates": [174.30839952928315, 38.541771379664105]}}, {"type": "Feature", "properties": {"norad_id": 66833, "name": "STARLINK-35858", "group": "last-30-days", "lat": 40.198356951358235, "lon": 175.3644668882614, "alt_km": 406.8775217148859, "timestamp": "2025-12-27T16:33:28.973305+00:00", "meta": {"OBJECT_NAME": "STARLINK-35858", "OBJECT_ID": "2025-280N", "EPOCH": "2025-12-27T04:00:06.196896", "MEAN_MOTION": 15.52549099, "ECCENTRICITY": 0.00034531, "INCLINATION": 70.0005, "RA_OF_ASC_NODE": 158.8719, "ARG_OF_PERICENTER": 273.3916, "MEAN_ANOMALY": 86.6876, "EPHEMERIS_TYPE": 0, "CLASSIFICATION_TYPE": "U", "NORAD_CAT_ID": 66833, "ELEMENT_SET_NO": 999, "REV_AT_EPOCH": 517, "BSTAR": 0.0013678637, "MEAN_MOTION_DOT": 0.00084983, "MEAN_MOTION_DDOT": 0}, "tle": {"line1": "1 66833U 25280N   25361.16673839  .00084983  00000+0  13679-2 0  9992", "line2": "2 66833  70.0005 158.8719 0003453 273.3916  86.6876 15.52549099  5178"}}, "geometry": {"type": "Point", "coordinates": [175.3644668882614, 40.198356951358235]}}, {"type": "Feature", "properties": {"norad_id": 66834, "name": "STARLINK-35840", "group": "last-30-days", "lat": 41.969512755486704, "lon": 176.55963664191702, "alt_km": 406.40049413289944, "timestamp": "2025-12-27T16:33:28.973315+00:00", "meta": {"OBJECT_NAME": "STARLINK-35840", "OBJECT_ID": "2025-280P", "EPOCH": "2025-12-27T11:43:29.125056", "MEAN_MOTION": 15.52643223, "ECCENTRICITY": 0.0003627, "INCLINATION": 70.0004, "RA_OF_ASC_NODE": 157.9881, "ARG_OF_PERICENTER": 277.7767, "MEAN_ANOMALY": 82.3008, "EPHEMERIS_TYPE": 0, "CLASSIFICATION_TYPE": "U", "NORAD_CAT_ID": 66834, "ELEMENT_SET_NO": 999, "REV_AT_EPOCH": 522, "BSTAR": 0.0023076, "MEAN_MOTION_DOT": 0.00145068, "MEAN_MOTION_DDOT": 0}, "tle": {"line1": "1 66834U 25280P   25361.48853154  .00145068  00000+0  23076-2 0  9992", "line2": "2 66834  70.0004 157.9881 0003627 277.7767  82.3008 15.52643223  5223"}}, "geometry": {"type": "Point", "coordinates": [176.55963664191702, 41.969512755486704]}}, {"type": "Feature", "properties": {"norad_id": 66835, "name": "STARLINK-35890", "group": "last-30-days", "lat": 45.83612233884164, "lon": 179.45625177077477, "alt_km": 405.90535832317255, "timestamp": "2025-12-27T16:33:28.973325+00:00", "meta": {"OBJECT_NAME": "STARLINK-35890", "OBJECT_ID": "2025-280Q", "EPOCH": "2025-12-27T11:42:31.224960", "MEAN_MOTION": 15.53572189, "ECCENTRICITY": 0.0007447, "INCLINATION": 70.0005, "RA_OF_ASC_NODE": 157.9854, "ARG_OF_PERICENTER": 261.6596, "MEAN_ANOMALY": 98.3747, "EPHEMERIS_TYPE": 0, "CLASSIFICATION_TYPE": "U", "NORAD_CAT_ID": 66835, "ELEMENT_SET_NO": 999, "REV_AT_EPOCH": 522, "BSTAR": 0.0021973, "MEAN_MOTION_DOT": 0.00142901, "MEAN_MOTION_DDOT": 0}, "tle": {"line1": "1 66835U 25280Q   25361.48786140  .00142901  00000+0  21973-2 0  9990", "line2": "2 66835  70.0005 157.9854 0007447 261.6596  98.3747 15.53572189  5221"}}, "geometry": {"type": "Point", "coordinates": [179.45625177077477, 45.83612233884164]}}, {"type": "Feature", "properties": {"norad_id": 66836, "name": "STARLINK-35838", "group": "last-30-days", "lat": 45.347938162194545, "lon": 179.06519171297307, "alt_km": 405.63110608478655, "timestamp": "2025-12-27T16:33:28.973358+00:00", "meta": {"OBJECT_NAME": "STARLINK-35838", "OBJECT_ID": "2025-280R", "EPOCH": "2025-12-27T11:42:29.998080", "MEAN_MOTION": 15.52647577, "ECCENTRICITY": 0.0003127, "INCLINATION": 70.0005, "RA_OF_ASC_NODE": 157.9848, "ARG_OF_PERICENTER": 282.9314, "MEAN_ANOMALY": 77.1524, "EPHEMERIS_TYPE": 0, "CLASSIFICATION_TYPE": "U", "NORAD_CAT_ID": 66836, "ELEMENT_SET_NO": 999, "REV_AT_EPOCH": 522, "BSTAR": 0.0023001, "MEAN_MOTION_DOT": 0.00144603, "MEAN_MOTION_DDOT": 0}, "tle": {"line1": "1 66836U 25280R   25361.48784720  .00144603  00000+0  23001-2 0  9998", "line2": "2 66836  70.0005 157.9848 0003127 282.9314  77.1524 15.52647577  5221"}}, "geometry": {"type": "Point", "coordinates": [179.06519171297307, 45.347938162194545]}}, {"type": "Feature", "properties": {"norad_id": 66837, "name": "STARLINK-35729", "group": "last-30-days", "lat": 46.96379479205909, "lon": -179.61107944771885, "alt_km": 405.9437291231179, "timestamp": "2025-12-27T16:33:28.973370+00:00", "meta": {"OBJECT_NAME": "STARLINK-35729", "OBJECT_ID": "2025-280S", "EPOCH": "2025-12-27T11:42:00.791424", "MEAN_MOTION": 15.5261026, "ECCENTRICITY": 0.000333, "INCLINATION": 70.0006, "RA_OF_ASC_NODE": 157.9835, "ARG_OF_PERICENTER": 272.0315, "MEAN_ANOMALY": 88.0491, "EPHEMERIS_TYPE": 0, "CLASSIFICATION_TYPE": "U", "NORAD_CAT_ID": 66837, "ELEMENT_SET_NO": 999, "REV_AT_EPOCH": 522, "BSTAR": 0.002413, "MEAN_MOTION_DOT": 0.00151641, "MEAN_MOTION_DDOT": 0}, "tle": {"line1": "1 66837U 25280S   25361.48750916  .00151641  00000+0  24130-2 0  9993", "line2": "2 66837  70.0006 157.9835 0003330 272.0315  88.0491 15.52610260  5229"}}, "geometry": {"type": "Point", "coordinates": [-179.61107944771885, 46.96379479205909]}}, {"type": "Feature", "properties": {"norad_id": 66838, "name": "STARLINK-35886", "group": "last-30-days", "lat": 50.136625430600574, "lon": -176.71622416221797, "alt_km": 406.2163375771861, "timestamp": "2025-12-27T16:33:28.973380+00:00", "meta": {"OBJECT_NAME": "STARLINK-35886", "OBJECT_ID": "2025-280T", "EPOCH": "2025-12-27T12:00:02.000160", "MEAN_MOTION": 15.5255704, "ECCENTRICITY": 0.0003509, "INCLINATION": 70.0007, "RA_OF_ASC_NODE": 157.9442, "ARG_OF_PERICENTER": 266.4334, "MEAN_ANOMALY": 167.3461, "EPHEMERIS_TYPE": 0, "CLASSIFICATION_TYPE": "U", "NORAD_CAT_ID": 66838, "ELEMENT_SET_NO": 999, "REV_AT_EPOCH": 526, "BSTAR": -0.0012604, "MEAN_MOTION_DOT": -0.00077068, "MEAN_MOTION_DDOT": 0}, "tle": {"line1": "1 66838U 25280T   25361.50002315 -.00077068  00000+0 -12604-2 0  9995", "line2": "2 66838  70.0007 157.9442 0003509 266.4334 167.3461 15.52557040  5269"}}, "geometry": {"type": "Point", "coordinates": [-176.71622416221797, 50.136625430600574]}}, {"type": "Feature", "properties": {"norad_id": 66839, "name": "STARLINK-35717", "group": "last-30-days", "lat": 50.993137823730315, "lon": -175.85449905550013, "alt_km": 402.50921384399226, "timestamp": "2025-12-27T16:33:28.973390+00:00", "meta": {"OBJECT_NAME": "STARLINK-35717", "OBJECT_ID": "2025-280U", "EPOCH": "2025-12-27T10:08:16.943712", "MEAN_MOTION": 15.53623239, "ECCENTRICITY": 0.0005951, "INCLINATION": 70.0006, "RA_OF_ASC_NODE": 158.157, "ARG_OF_PERICENTER": 298.7106, "MEAN_ANOMALY": 61.3483, "EPHEMERIS_TYPE": 0, "CLASSIFICATION_TYPE": "U", "NORAD_CAT_ID": 66839, "ELEMENT_SET_NO": 999, "REV_AT_EPOCH": 521, "BSTAR": 0.002437, "MEAN_MOTION_DOT": 0.00159065, "MEAN_MOTION_DDOT": 0}, "tle": {"line1": "1 66839U 25280U   25361.42241833  .00159065  00000+0  24370-2 0  9996", "line2": "2 66839  70.0006 158.1570 0005951 298.7106  61.3483 15.53623239  5219"}}, "geometry": {"type": "Point", "coordinates": [-175.85449905550013, 50.993137823730315]}}]}